0 FENGYUN 1C DEB
1 37067U 99025EFB 13282.57303389  .00004021  00000-0  39902-2 0  1367
2 37067 099.2228 190.6940 0238374 281.6569 075.7811 13.67063739250753
0 FENGYUN 1C DEB
1 37067U 99025EFB 13286.96425406  .00004072  00000-0  40427-2 0  1370
2 37067 099.2254 194.8891 0237597 270.4672 086.9351 13.67100443251354
0 FENGYUN 1C DEB
1 37067U 99025EFB 13289.96486050  .00004208  00000-0  41797-2 0  1388
2 37067 099.2253 197.7536 0236779 262.7480 094.6907 13.67127652251762
0 FENGYUN 1C DEB
1 37067U 99025EFB 13292.52631070  .00004264  00000-0  42391-2 0  1392
2 37067 099.2281 200.2034 0235962 255.7669 101.7426 13.67150693252117
